
# Worst residual: 1.55 km
# MJD 58231.000000 (2018 Apr 23  0:00)
1969-046F = NORAD 03956 = Vela booster
1 03956U 69046F   18113.49919926  .00000000  00000-0  00000-0 0  2983
2 03956 020.8831 355.5464 8095661 237.7478 231.3480 00.46202360    06

# Worst residual: 6.67 km
# MJD 58232.000000 (2018 Apr 24  0:00)
1969-046F = NORAD 03956 = Vela booster
1 03956U 69046F   18114.49919926  .00000000  00000-0  00000-0 0  2984
2 03956 020.8829 355.5190 8094065 237.7905 037.6221 00.46204385    00

# Worst residual: 1.39 km
# MJD 58233.000000 (2018 Apr 25  0:00)
1969-046F = NORAD 03956 = Vela booster
1 03956U 69046F   18115.49919926  .00000000  00000-0  00000-0 0  2985
2 03956 020.8768 355.4900 8096396 237.8427 203.8249 00.46194663    03

# Worst residual: 9.36 km
# MJD 58234.000000 (2018 Apr 26  0:00)
1969-046F = NORAD 03956 = Vela booster
1 03956U 69046F   18116.49919926  .00000000  00000-0  00000-0 0  2986
2 03956 020.8773 355.4653 8096361 237.8936 010.0976 00.46199128    07

# Worst residual: 3.22 km
# MJD 58235.000000 (2018 Apr 27  0:00)
1969-046F = NORAD 03956 = Vela booster
1 03956U 69046F   18117.49919926  .00000000  00000-0  00000-0 0  2987
2 03956 020.8725 355.4387 8096705 237.9470 176.3176 00.46190397    01

# Worst residual: 20.63 km
# MJD 58236.000000 (2018 Apr 28  0:00)
1969-046F = NORAD 03956 = Vela booster
1 03956U 69046F   18118.49919926  .00000000  00000-0  00000-0 0  2988
2 03956 020.8738 355.4226 8097042 237.9802 342.5982 00.46169225    09

# Worst residual: 1.13 km
# MJD 58237.000000 (2018 Apr 29  0:00)
1969-046F = NORAD 03956 = Vela booster
1 03956U 69046F   18119.49919926  .00000000  00000-0  00000-0 0  2989
2 03956 020.8702 355.3953 8095827 238.0346 148.8480 00.46190108    04

# Worst residual: 19.37 km
# MJD 58238.000000 (2018 Apr 30  0:00)
1969-046F = NORAD 03956 = Vela booster
1 03956U 69046F   18120.49919926  .00000000  00000-0  00000-0 0  2981
2 03956 020.8728 355.3928 8095753 238.0433 315.1596 00.46166092    01

# Worst residual: 9.23 km
# MJD 58239.000000 (2018 May  1  0:00)
1969-046F = NORAD 03956 = Vela booster
1 03956U 69046F   18121.49919926  .00000000  00000-0  00000-0 0  2982
2 03956 020.8688 355.3576 8094525 238.1127 121.3929 00.46184095    02

# Worst residual: 13.35 km
# MJD 58240.000000 (2018 May  2  0:00)
1969-046F = NORAD 03956 = Vela booster
1 03956U 69046F   18122.49919926  .00000000  00000-0  00000-0 0  2983
2 03956 020.8724 355.3635 8095359 238.1110 287.7137 00.46179427    08

# Worst residual: 12.70 km
# MJD 58241.000000 (2018 May  3  0:00)
1969-046F = NORAD 03956 = Vela booster
1 03956U 69046F   18123.49919926  .00000000  00000-0  00000-0 0  2984
2 03956 020.8682 355.3204 8094830 238.1975 093.9202 00.46173720    05

# Worst residual: 3.77 km
# MJD 58242.000000 (2018 May  4  0:00)
1969-046F = NORAD 03956 = Vela booster
1 03956U 69046F   18124.49919926  .00000000  00000-0  00000-0 0  2985
2 03956 020.8697 355.3167 8096197 238.2050 260.2318 00.46189957    08

# Worst residual: 10.96 km
# MJD 58243.000000 (2018 May  5  0:00)
1969-046F = NORAD 03956 = Vela booster
1 03956U 69046F   18125.49919926  .00000000  00000-0  00000-0 0  2986
2 03956 020.8672 355.2789 8096507 238.2755 066.4667 00.46180494    07

# Worst residual: 1.66 km
# MJD 58244.000000 (2018 May  6  0:00)
1969-046F = NORAD 03956 = Vela booster
1 03956U 69046F   18126.49919926  .00000000  00000-0  00000-0 0  2987
2 03956 020.8655 355.2624 8096320 238.3059 232.7566 00.46191907    04

# Worst residual: 6.73 km
# MJD 58245.000000 (2018 May  7  0:00)
1969-046F = NORAD 03956 = Vela booster
1 03956U 69046F   18127.49919926  .00000000  00000-0  00000-0 0  2988
2 03956 020.8651 355.2326 8095647 238.3611 038.9994 00.46193588    02

# Worst residual: 3.48 km
# MJD 58246.000000 (2018 May  8  0:00)
1969-046F = NORAD 03956 = Vela booster
1 03956U 69046F   18128.49919926  .00000000  00000-0  00000-0 0  2989
2 03956 020.8615 355.2109 8095111 238.4014 205.2860 00.46195903    09

# Worst residual: 6.54 km
# MJD 58247.000000 (2018 May  9  0:00)
1969-046F = NORAD 03956 = Vela booster
1 03956U 69046F   18129.49919926  .00000000  00000-0  00000-0 0  2980
2 03956 020.8623 355.1897 8093210 238.4387 011.5401 00.46196578    00

# Worst residual: 3.68 km
# MJD 58248.000000 (2018 May 10  0:00)
1969-046F = NORAD 03956 = Vela booster
1 03956U 69046F   18130.49919926  .00000000  00000-0  00000-0 0  2982
2 03956 020.8563 355.1606 8094392 238.4797 177.8204 00.46201444    04

# Worst residual: 13.64 km
# MJD 58249.000000 (2018 May 11  0:00)
1969-046F = NORAD 03956 = Vela booster
1 03956U 69046F   18131.49919926  .00000000  00000-0  00000-0 0  2983
2 03956 020.8579 355.1450 8093394 238.5019 344.1398 00.46178868    03

# Worst residual: 5.76 km
# MJD 58250.000000 (2018 May 12  0:00)
1969-046F = NORAD 03956 = Vela booster
1 03956U 69046F   18132.49919926  .00000000  00000-0  00000-0 0  2984
2 03956 020.8471 355.1030 8095464 238.5575 150.3506 00.46188479    02

# Worst residual: 18.10 km
# MJD 58251.000000 (2018 May 13  0:00)
1969-046F = NORAD 03956 = Vela booster
1 03956U 69046F   18133.49919926  .00000000  00000-0  00000-0 0  2985
2 03956 020.8454 355.0780 8099196 238.5978 316.6780 00.46181162    00

# Worst residual: 6.68 km
# MJD 58252.000000 (2018 May 14  0:00)
1969-046F = NORAD 03956 = Vela booster
1 03956U 69046F   18134.49919926  .00000000  00000-0  00000-0 0  2986
2 03956 020.8352 355.0277 8098523 238.6977 122.8556 00.46164985    03

# Worst residual: 16.27 km
# MJD 58253.000000 (2018 May 15  0:00)
1969-046F = NORAD 03956 = Vela booster
1 03956U 69046F   18135.49919926  .00000000  00000-0  00000-0 0  2987
2 03956 020.8275 354.9794 8101669 238.7868 288.9310 00.46172547    00

# Worst residual: 16.91 km
# MJD 58254.000000 (2018 May 16  0:00)
1969-046F = NORAD 03956 = Vela booster
1 03956U 69046F   18136.49919926  .00000000  00000-0  00000-0 0  2988
2 03956 020.8211 354.9221 8100662 238.9180 095.1510 00.46181648    08

# Worst residual: 9.16 km
# MJD 58255.000000 (2018 May 17  0:00)
1969-046F = NORAD 03956 = Vela booster
1 03956U 69046F   18137.49919926  .00000000  00000-0  00000-0 0  2989
2 03956 020.8191 354.9014 8094336 238.9689 261.3007 00.46167396    01

# Worst residual: 14.98 km
# MJD 58256.000000 (2018 May 18  0:00)
1969-046F = NORAD 03956 = Vela booster
1 03956U 69046F   18138.49919926  .00000000  00000-0  00000-0 0  2980
2 03956 020.8165 354.8605 8093118 239.0439 067.4776 00.46182633    08

# Worst residual: 3.40 km
# MJD 58257.000000 (2018 May 19  0:00)
1969-046F = NORAD 03956 = Vela booster
1 03956U 69046F   18139.49919926  .00000000  00000-0  00000-0 0  2981
2 03956 020.8148 354.8450 8091710 239.0636 233.8472 00.46198492    04

# Worst residual: 6.33 km
# MJD 58258.000000 (2018 May 20  0:00)
1969-046F = NORAD 03956 = Vela booster
1 03956U 69046F   18140.49919926  .00000000  00000-0  00000-0 0  2983
2 03956 020.8140 354.8181 8089080 239.0986 040.0840 00.46189655    00
